IRIDIUM 126             
1 42809U 17039G   23312.71535280  .00000077  00000+0  20297-4 0  9992
2 42809  86.4013  31.2671 0001884  96.3402 263.8008 14.34219692333571
IRIDIUM 124             
1 42810U 17039H   23312.76395251  .00000726  00000+0  20985-3 0  9995
2 42810  86.4477 328.0233 0002475  93.9555 266.1929 14.43281726337880
IRIDIUM 128             
1 42811U 17039J   23312.84562192  .00000788  00000+0  27432-3 0  9997
2 42811  86.3976  62.7317 0001964  94.1079 266.0342 14.34215248333627
IRIDIUM 121             
1 42812U 17039K   23312.94368361  .00000046  00000+0  92607-5 0  9996
2 42812  86.4014  31.1939 0001942  90.8218 269.3200 14.34219515333480
IRIDIUM 133             
1 42955U 17061A   23312.80756114  .00000719  00000+0  24964-3 0  9997
2 42955  86.3980  62.8412 0001870  90.2182 269.9228 14.34216044318416
IRIDIUM 100             
1 42956U 17061B   23312.80122730  .00000695  00000+0  24124-3 0  9990
2 42956  86.3976  62.7847 0002033  92.7743 267.3686 14.34214140318410
IRIDIUM 122             
1 42957U 17061C   23312.83928412  .00000623  00000+0  21556-3 0  9992
2 42957  86.3971  62.7672 0001858  98.2361 261.9046 14.34215306318429
IRIDIUM 129             
1 42958U 17061D   23312.79488497  .00000731  00000+0  25407-3 0  9991
2 42958  86.3979  62.8439 0001869  97.0056 263.1352 14.34220539318439
