<?xml version="1.0" encoding="UTF-8"?>
<ndm xmlns:xsi="http://www.w3.org/2001/XMLSchema-instance" xsi:noNamespaceSchemaLocation="https://sanaregistry.org/r/ndmxml_unqualified/ndmxml-2.0.0-master-2.0.xsd">
<omm id="CCSDS_OMM_VERS" version="2.0">
<header><CREATION_DATE/><ORIGINATOR/></header><body><segment><metadata><OBJECT_NAME>IRIDIUM 126</OBJECT_NAME><OBJECT_ID>2017-039G</OBJECT_ID><CENTER_NAME>EARTH</CENTER_NAME><REF_FRAME>TEME</REF_FRAME><TIME_SYSTEM>UTC</TIME_SYSTEM><MEAN_ELEMENT_THEORY>SGP4</MEAN_ELEMENT_THEORY></metadata><data><meanElements><EPOCH>2023-11-08T17:10:06.481920</EPOCH><MEAN_MOTION>14.34219692</MEAN_MOTION><ECCENTRICITY>.0001884</ECCENTRICITY><INCLINATION>86.4013</INCLINATION><RA_OF_ASC_NODE>31.2671</RA_OF_ASC_NODE><ARG_OF_PERICENTER>96.3402</ARG_OF_PERICENTER><MEAN_ANOMALY>263.8008</MEAN_ANOMALY></meanElements><tleParameters><EPHEMERIS_TYPE>0</EPHEMERIS_TYPE><CLASSIFICATION_TYPE>U</CLASSIFICATION_TYPE><NORAD_CAT_ID>42809</NORAD_CAT_ID><ELEMENT_SET_NO>999</ELEMENT_SET_NO><REV_AT_EPOCH>33357</REV_AT_EPOCH><BSTAR>.20297E-4</BSTAR><MEAN_MOTION_DOT>.77E-6</MEAN_MOTION_DOT><MEAN_MOTION_DDOT>0</MEAN_MOTION_DDOT></tleParameters></data></segment></body></omm>
<omm id="CCSDS_OMM_VERS" version="2.0">
<header><CREATION_DATE/><ORIGINATOR/></header><body><segment><metadata><OBJECT_NAME>IRIDIUM 124</OBJECT_NAME><OBJECT_ID>2017-039H</OBJECT_ID><CENTER_NAME>EARTH</CENTER_NAME><REF_FRAME>TEME</REF_FRAME><TIME_SYSTEM>UTC</TIME_SYSTEM><MEAN_ELEMENT_THEORY>SGP4</MEAN_ELEMENT_THEORY></metadata><data><meanElements><EPOCH>2023-11-08T18:20:05.496864</EPOCH><MEAN_MOTION>14.43281726</MEAN_MOTION><ECCENTRICITY>.0002475</ECCENTRICITY><INCLINATION>86.4477</INCLINATION><RA_OF_ASC_NODE>328.0233</RA_OF_ASC_NODE><ARG_OF_PERICENTER>93.9555</ARG_OF_PERICENTER><MEAN_ANOMALY>266.1929</MEAN_ANOMALY></meanElements><tleParameters><EPHEMERIS_TYPE>0</EPHEMERIS_TYPE><CLASSIFICATION_TYPE>U</CLASSIFICATION_TYPE><NORAD_CAT_ID>42810</NORAD_CAT_ID><ELEMENT_SET_NO>999</ELEMENT_SET_NO><REV_AT_EPOCH>33788</REV_AT_EPOCH><BSTAR>.20985E-3</BSTAR><MEAN_MOTION_DOT>.726E-5</MEAN_MOTION_DOT><MEAN_MOTION_DDOT>0</MEAN_MOTION_DDOT></tleParameters></data></segment></body></omm>
<omm id="CCSDS_OMM_VERS" version="2.0">
<header><CREATION_DATE/><ORIGINATOR/></header><body><segment><metadata><OBJECT_NAME>IRIDIUM 128</OBJECT_NAME><OBJECT_ID>2017-039J</OBJECT_ID><CENTER_NAME>EARTH</CENTER_NAME><REF_FRAME>TEME</REF_FRAME><TIME_SYSTEM>UTC</TIME_SYSTEM><MEAN_ELEMENT_THEORY>SGP4</MEAN_ELEMENT_THEORY></metadata><data><meanElements><EPOCH>2023-11-08T20:17:41.733888</EPOCH><MEAN_MOTION>14.34215248</MEAN_MOTION><ECCENTRICITY>.0001964</ECCENTRICITY><INCLINATION>86.3976</INCLINATION><RA_OF_ASC_NODE>62.7317</RA_OF_ASC_NODE><ARG_OF_PERICENTER>94.1079</ARG_OF_PERICENTER><MEAN_ANOMALY>266.0342</MEAN_ANOMALY></meanElements><tleParameters><EPHEMERIS_TYPE>0</EPHEMERIS_TYPE><CLASSIFICATION_TYPE>U</CLASSIFICATION_TYPE><NORAD_CAT_ID>42811</NORAD_CAT_ID><ELEMENT_SET_NO>999</ELEMENT_SET_NO><REV_AT_EPOCH>33362</REV_AT_EPOCH><BSTAR>.27432E-3</BSTAR><MEAN_MOTION_DOT>.788E-5</MEAN_MOTION_DOT><MEAN_MOTION_DDOT>0</MEAN_MOTION_DDOT></tleParameters></data></segment></body></omm>
<omm id="CCSDS_OMM_VERS" version="2.0">
<header><CREATION_DATE/><ORIGINATOR/></header><body><segment><metadata><OBJECT_NAME>IRIDIUM 121</OBJECT_NAME><OBJECT_ID>2017-039K</OBJECT_ID><CENTER_NAME>EARTH</CENTER_NAME><REF_FRAME>TEME</REF_FRAME><TIME_SYSTEM>UTC</TIME_SYSTEM><MEAN_ELEMENT_THEORY>SGP4</MEAN_ELEMENT_THEORY></metadata><data><meanElements><EPOCH>2023-11-08T22:38:54.263904</EPOCH><MEAN_MOTION>14.34219515</MEAN_MOTION><ECCENTRICITY>.0001942</ECCENTRICITY><INCLINATION>86.4014</INCLINATION><RA_OF_ASC_NODE>31.1939</RA_OF_ASC_NODE><ARG_OF_PERICENTER>90.8218</ARG_OF_PERICENTER><MEAN_ANOMALY>269.3200</MEAN_ANOMALY></meanElements><tleParameters><EPHEMERIS_TYPE>0</EPHEMERIS_TYPE><CLASSIFICATION_TYPE>U</CLASSIFICATION_TYPE><NORAD_CAT_ID>42812</NORAD_CAT_ID><ELEMENT_SET_NO>999</ELEMENT_SET_NO><REV_AT_EPOCH>33348</REV_AT_EPOCH><BSTAR>.92607E-5</BSTAR><MEAN_MOTION_DOT>.46E-6</MEAN_MOTION_DOT><MEAN_MOTION_DDOT>0</MEAN_MOTION_DDOT></tleParameters></data></segment></body></omm>
<omm id="CCSDS_OMM_VERS" version="2.0">
<header><CREATION_DATE/><ORIGINATOR/></header><body><segment><metadata><OBJECT_NAME>IRIDIUM 133</OBJECT_NAME><OBJECT_ID>2017-061A</OBJECT_ID><CENTER_NAME>EARTH</CENTER_NAME><REF_FRAME>TEME</REF_FRAME><TIME_SYSTEM>UTC</TIME_SYSTEM><MEAN_ELEMENT_THEORY>SGP4</MEAN_ELEMENT_THEORY></metadata><data><meanElements><EPOCH>2023-11-08T19:22:53.282496</EPOCH><MEAN_MOTION>14.34216044</MEAN_MOTION><ECCENTRICITY>.000187</ECCENTRICITY><INCLINATION>86.3980</INCLINATION><RA_OF_ASC_NODE>62.8412</RA_OF_ASC_NODE><ARG_OF_PERICENTER>90.2182</ARG_OF_PERICENTER><MEAN_ANOMALY>269.9228</MEAN_ANOMALY></meanElements><tleParameters><EPHEMERIS_TYPE>0</EPHEMERIS_TYPE><CLASSIFICATION_TYPE>U</CLASSIFICATION_TYPE><NORAD_CAT_ID>42955</NORAD_CAT_ID><ELEMENT_SET_NO>999</ELEMENT_SET_NO><REV_AT_EPOCH>31841</REV_AT_EPOCH><BSTAR>.24964E-3</BSTAR><MEAN_MOTION_DOT>.719E-5</MEAN_MOTION_DOT><MEAN_MOTION_DDOT>0</MEAN_MOTION_DDOT></tleParameters></data></segment></body></omm>
<omm id="CCSDS_OMM_VERS" version="2.0">
<header><CREATION_DATE/><ORIGINATOR/></header><body><segment><metadata><OBJECT_NAME>IRIDIUM 100</OBJECT_NAME><OBJECT_ID>2017-061B</OBJECT_ID><CENTER_NAME>EARTH</CENTER_NAME><REF_FRAME>TEME</REF_FRAME><TIME_SYSTEM>UTC</TIME_SYSTEM><MEAN_ELEMENT_THEORY>SGP4</MEAN_ELEMENT_THEORY></metadata><data><meanElements><EPOCH>2023-11-08T19:13:46.038720</EPOCH><MEAN_MOTION>14.34214140</MEAN_MOTION><ECCENTRICITY>.0002033</ECCENTRICITY><INCLINATION>86.3976</INCLINATION><RA_OF_ASC_NODE>62.7847</RA_OF_ASC_NODE><ARG_OF_PERICENTER>92.7743</ARG_OF_PERICENTER><MEAN_ANOMALY>267.3686</MEAN_ANOMALY></meanElements><tleParameters><EPHEMERIS_TYPE>0</EPHEMERIS_TYPE><CLASSIFICATION_TYPE>U</CLASSIFICATION_TYPE><NORAD_CAT_ID>42956</NORAD_CAT_ID><ELEMENT_SET_NO>999</ELEMENT_SET_NO><REV_AT_EPOCH>31841</REV_AT_EPOCH><BSTAR>.24124E-3</BSTAR><MEAN_MOTION_DOT>.695E-5</MEAN_MOTION_DOT><MEAN_MOTION_DDOT>0</MEAN_MOTION_DDOT></tleParameters></data></segment></body></omm>
<omm id="CCSDS_OMM_VERS" version="2.0">
<header><CREATION_DATE/><ORIGINATOR/></header><body><segment><metadata><OBJECT_NAME>IRIDIUM 122</OBJECT_NAME><OBJECT_ID>2017-061C</OBJECT_ID><CENTER_NAME>EARTH</CENTER_NAME><REF_FRAME>TEME</REF_FRAME><TIME_SYSTEM>UTC</TIME_SYSTEM><MEAN_ELEMENT_THEORY>SGP4</MEAN_ELEMENT_THEORY></metadata><data><meanElements><EPOCH>2023-11-08T20:08:34.147968</EPOCH><MEAN_MOTION>14.34215306</MEAN_MOTION><ECCENTRICITY>.0001858</ECCENTRICITY><INCLINATION>86.3971</INCLINATION><RA_OF_ASC_NODE>62.7672</RA_OF_ASC_NODE><ARG_OF_PERICENTER>98.2361</ARG_OF_PERICENTER><MEAN_ANOMALY>261.9046</MEAN_ANOMALY></meanElements><tleParameters><EPHEMERIS_TYPE>0</EPHEMERIS_TYPE><CLASSIFICATION_TYPE>U</CLASSIFICATION_TYPE><NORAD_CAT_ID>42957</NORAD_CAT_ID><ELEMENT_SET_NO>999</ELEMENT_SET_NO><REV_AT_EPOCH>31842</REV_AT_EPOCH><BSTAR>.21556E-3</BSTAR><MEAN_MOTION_DOT>.623E-5</MEAN_MOTION_DOT><MEAN_MOTION_DDOT>0</MEAN_MOTION_DDOT></tleParameters></data></segment></body></omm>
<omm id="CCSDS_OMM_VERS" version="2.0">
<header><CREATION_DATE/><ORIGINATOR/></header><body><segment><metadata><OBJECT_NAME>IRIDIUM 129</OBJECT_NAME><OBJECT_ID>2017-061D</OBJECT_ID><CENTER_NAME>EARTH</CENTER_NAME><REF_FRAME>TEME</REF_FRAME><TIME_SYSTEM>UTC</TIME_SYSTEM><MEAN_ELEMENT_THEORY>SGP4</MEAN_ELEMENT_THEORY></metadata><data><meanElements><EPOCH>2023-11-08T19:04:38.061408</EPOCH><MEAN_MOTION>14.34220539</MEAN_MOTION><ECCENTRICITY>.0001869</ECCENTRICITY><INCLINATION>86.3979</INCLINATION><RA_OF_ASC_NODE>62.8439</RA_OF_ASC_NODE><ARG_OF_PERICENTER>97.0056</ARG_OF_PERICENTER><MEAN_ANOMALY>263.1352</MEAN_ANOMALY></meanElements><tleParameters><EPHEMERIS_TYPE>0</EPHEMERIS_TYPE><CLASSIFICATION_TYPE>U</CLASSIFICATION_TYPE><NORAD_CAT_ID>42958</NORAD_CAT_ID><ELEMENT_SET_NO>999</ELEMENT_SET_NO><REV_AT_EPOCH>31843</REV_AT_EPOCH><BSTAR>.25407E-3</BSTAR><MEAN_MOTION_DOT>.731E-5</MEAN_MOTION_DOT><MEAN_MOTION_DDOT>0</MEAN_MOTION_DDOT></tleParameters></data></segment></body></omm>

</ndm>
